NORAD_CAT_ID,OBJECT_NAME,OBJECT_TYPE,EPOCH,MEAN_MOTION,ECCENTRICITY,INCLINATION,RA_OF_ASC_NODE,ARG_OF_PERICENTER,MEAN_ANOMALY,BSTAR,MEAN_MOTION_DOT,MEAN_MOTION_DDOT,TLE_LINE0,TLE_LINE1,TLE_LINE2,SEMIMAJOR_AXIS,PERIOD,APOGEE,PERIGEE,DECAYED
53859.0,STARLINK-4790,PAYLOAD,2024-03-24 20:57:02,15.08840101,0.0001592,53.2149,257.7078,126.4956,233.6183,3.991e-06,-2.25e-06,0.0,0 STARLINK-4790,1 53859U 22114AT  24084.87294678 -.00000225  00000-0  39910-5 0  9996,2 53859  53.2149 257.7078 0001592 126.4956 233.6183 15.08840101 84592,6917.88,95.438,540.846,538.644,0.0
53859.0,STARLINK-4790,PAYLOAD,2024-03-25 17:37:03,15.08843014,0.0001546,53.2152,253.8452,106.6925,253.4237,8.8093e-05,1.114e-05,0.0,0 STARLINK-4790,1 53859U 22114AT  24085.73406556  .00001114  00000-0  88093-4 0  9994,2 53859  53.2152 253.8452 0001546 106.6925 253.4237 15.08843014 85265,6917.871,95.437,540.806,538.667,0.0
53859.0,STARLINK-4790,PAYLOAD,2024-03-26 04:44:44,15.08848782,0.0001262,53.216,251.7626,104.9449,255.1683,-1.3519e-05,-5.03e-06,0.0,0 STARLINK-4790,1 53859U 22114AT  24086.19774144 -.00000503  00000-0 -13519-4 0  9990,2 53859  53.2160 251.7626 0001262 104.9449 255.1683 15.08848782 84799,6917.854,95.437,540.592,538.846,0.0
53859.0,STARLINK-4790,PAYLOAD,2024-03-26 11:06:18,15.0883621,0.0002361,53.2169,250.573,96.2886,263.8375,0.00028245,4.209e-05,0.0,0 STARLINK-4790,1 53859U 22114AT  24086.46271243  .00004209  00000-0  28245-3 0  9998,2 53859  53.2169 250.5730 0002361  96.2886 263.8375 15.08836210 84832,6917.892,95.438,541.39,538.124,0.0
53859.0,STARLINK-4790,PAYLOAD,2024-03-26 14:17:05,15.08819413,0.0001563,53.2159,249.9788,104.6243,255.4923,9.0849e-05,1.157e-05,0.0,0 STARLINK-4790,1 53859U 22114AT  24086.59519995  .00001157  00000-0  90849-4 0  9990,2 53859  53.2159 249.9788 0001563 104.6243 255.4923 15.08819413 85394,6917.943,95.439,540.89,538.727,0.0
53859.0,STARLINK-4790,PAYLOAD,2024-03-26 17:27:51,15.08819381,0.0001451,53.2168,249.3863,91.4038,268.7121,8.205e-05,1.017e-05,0.0,0 STARLINK-4790,1 53859U 22114AT  24086.72768214  .00001017  00000-0  82050-4 0  9995,2 53859  53.2168 249.3863 0001451  91.4038 268.7121 15.08819381 84876,6917.943,95.439,540.812,538.805,0.0
53859.0,STARLINK-4790,PAYLOAD,2024-03-27 10:57:06,15.08831303,0.0001491,53.2157,246.1131,87.1214,272.9949,0.00012343,1.677e-05,0.0,0 STARLINK-4790,1 53859U 22114AT  24087.45632267  .00001677  00000-0  12343-3 0  9993,2 53859  53.2157 246.1131 0001491  87.1214 272.9949 15.08831303 84984,6917.907,95.438,540.803,538.741,0.0
53859.0,STARLINK-4790,PAYLOAD,2024-03-27 14:07:52,15.0883186,0.0001424,53.2168,245.521,84.6456,275.4699,0.00020548,2.983e-05,0.0,0 STARLINK-4790,1 53859U 22114AT  24087.58880200  .00002983  00000-0  20548-3 0  9996,2 53859  53.2168 245.5210 0001424  84.6456 275.4699 15.08831860 85544,6917.905,95.438,540.755,538.785,0.0
53859.0,STARLINK-4790,PAYLOAD,2024-03-27 17:18:38,15.08837152,0.000139,53.2159,244.9251,83.0002,277.1148,0.000228,3.342e-05,0.0,0 STARLINK-4790,1 53859U 22114AT  24087.72128178  .00003342  00000-0  22800-3 0  9994,2 53859  53.2159 244.9251 0001390  83.0002 277.1148 15.08837152 85564,6917.889,95.438,540.716,538.793,0.0
53859.0,STARLINK-4790,PAYLOAD,2024-03-28 02:50:57,15.08852024,0.0001474,53.2176,243.1415,79.1868,280.929,0.00043697,6.675e-05,0.0,0 STARLINK-4790,1 53859U 22114AT  24088.11871620  .00006675  00000-0  43697-3 0  9994,2 53859  53.2176 243.1415 0001474  79.1868 280.9290 15.08852024 85087,6917.844,95.437,540.728,538.689,0.0
53859.0,STARLINK-4790,PAYLOAD,2024-03-28 10:47:53,15.08845667,0.0002643,53.2167,241.6551,77.71,282.4188,0.00045945,7.033e-05,0.0,0 STARLINK-4790,1 53859U 22114AT  24088.44992379  .00007033  00000-0  45945-3 0  9992,2 53859  53.2167 241.6551 0002643  77.7100 282.4188 15.08845667 85137,6917.863,95.437,541.556,537.9,0.0
53859.0,STARLINK-4790,PAYLOAD,2024-03-28 20:20:12,15.08840946,0.0001718,53.2172,239.8725,85.9171,274.2018,0.00017079,2.431e-05,0.0,0 STARLINK-4790,1 53859U 22114AT  24088.84736318  .00002431  00000-0  17079-3 0  9999,2 53859  53.2172 239.8725 0001718  85.9171 274.2018 15.08840946 85738,6917.877,95.437,540.931,538.554,0.0
53859.0,STARLINK-4790,PAYLOAD,2024-03-29 09:03:17,15.08846989,0.0001728,53.2177,237.4937,86.7665,273.3525,0.00021948,3.207e-05,0.0,0 STARLINK-4790,1 53859U 22114AT  24089.37728092  .00003207  00000-0  21948-3 0  9990,2 53859  53.2177 237.4937 0001728  86.7665 273.3525 15.08846989 85815,6917.859,95.437,540.919,538.529,0.0
53859.0,STARLINK-4790,PAYLOAD,2024-03-29 20:10:59,15.08842558,0.0001288,53.2166,235.4097,80.2163,279.8975,0.0002037,2.956e-05,0.0,0 STARLINK-4790,1 53859U 22114AT  24089.84096191  .00002956  00000-0  20370-3 0  9998,2 53859  53.2166 235.4097 0001288  80.2163 279.8975 15.08842558 85886,6917.873,95.437,540.629,538.847,0.0
53859.0,STARLINK-4790,PAYLOAD,2024-03-30 02:32:31,15.08850386,0.0001178,53.2168,234.2201,72.3236,287.7884,0.00040476,6.162e-05,0.0,0 STARLINK-4790,1 53859U 22114AT  24090.10591879  .00006162  00000-0  40476-3 0  9994,2 53859  53.2168 234.2201 0001178  72.3236 287.7884 15.08850386 85383,6917.849,95.437,540.529,538.899,0.0
53859.0,STARLINK-4790,PAYLOAD,2024-03-30 13:40:13,15.08836789,0.0001345,53.2149,232.1399,79.2799,280.8344,5.8833e-05,6.48e-06,0.0,0 STARLINK-4790,1 53859U 22114AT  24090.56960485  .00000648  00000-0  58833-4 0  9997,2 53859  53.2149 232.1399 0001345  79.2799 280.8344 15.08836789 85457,6917.89,95.438,540.686,538.825,0.0
53859.0,STARLINK-4790,PAYLOAD,2024-03-30 20:01:46,15.08852205,0.0001531,53.2158,230.9508,47.2497,312.8624,0.0004843,7.431e-05,0.0,0 STARLINK-4790,1 53859U 22114AT  24090.83456235  .00007431  00000-0  48430-3 0  9998,2 53859  53.2158 230.9508 0001531  47.2497 312.8624 15.08852205 85494,6917.843,95.437,540.767,538.649,0.0
53859.0,STARLINK-4790,PAYLOAD,2024-03-31 13:31:00,15.0884093,0.0001544,53.2157,227.6808,81.8903,278.2264,0.00019983,2.894e-05,0.0,0 STARLINK-4790,1 53859U 22114AT  24091.56320563  .00002894  00000-0  19983-3 0  9992,2 53859  53.2157 227.6808 0001544  81.8903 278.2264 15.08840930 85609,6917.878,95.437,540.811,538.674,0.0
53859.0,STARLINK-4790,PAYLOAD,2024-03-31 15:06:24,15.08840792,0.0001338,53.2145,227.3831,81.8178,278.2966,0.00019222,2.773e-05,0.0,0 STARLINK-4790,1 53859U 22114AT  24091.62944517  .00002773  00000-0  19222-3 0  9992,2 53859  53.2145 227.3831 0001338  81.8178 278.2966 15.08840792 86150,6917.878,95.438,540.669,538.817,0.0
53859.0,STARLINK-4790,PAYLOAD,2024-03-31 16:41:46,15.08851694,0.0001287,53.2176,227.0845,79.8914,280.2223,0.00041582,6.338e-05,0.0,0 STARLINK-4790,1 53859U 22114AT  24091.69568255  .00006338  00000-0  41582-3 0  9995,2 53859  53.2176 227.0845 0001287  79.8914 280.2223 15.08851694 86167,6917.845,95.437,540.6,538.819,0.0
53859.0,STARLINK-4790,PAYLOAD,2024-04-01 02:14:05,15.08855236,0.0001278,53.2169,225.3004,74.5415,285.5718,0.0005394,8.311e-05,0.0,0 STARLINK-4790,1 53859U 22114AT  24092.09312007  .00008311  00000-0  53940-3 0  9996,2 53859  53.2169 225.3004 0001278  74.5415 285.5718 15.08855236 85684,6917.834,95.437,540.583,538.815,0.0
53859.0,STARLINK-4790,PAYLOAD,2024-04-01 14:57:11,15.08834884,0.000129,53.2157,222.9232,82.5246,277.5893,-1.8462e-05,-5.82e-06,0.0,0 STARLINK-4790,1 53859U 22114AT  24092.62304609 -.00000582  00000-0 -18462-4 0  9999,2 53859  53.2157 222.9232 0001290  82.5246 277.5893 15.08834884 86303,6917.896,95.438,540.653,538.869,0.0
53859.0,STARLINK-4790,PAYLOAD,2024-04-01 18:07:57,15.08844999,0.0001332,53.2155,222.3252,94.0367,266.0778,0.00021914,3.202e-05,0.0,0 STARLINK-4790,1 53859U 22114AT  24092.75552280  .00003202  00000-0  21914-3 0  9998,2 53859  53.2155 222.3252 0001332  94.0367 266.0778 15.08844999 85780,6917.865,95.437,540.652,538.809,0.0
53859.0,STARLINK-4790,PAYLOAD,2024-04-02 11:37:11,15.08841394,0.0001812,53.2163,219.0558,113.7875,246.3307,0.00021863,3.193e-05,0.0,0 STARLINK-4790,1 53859U 22114AT  24093.48416586  .00003193  00000-0  21863-3 0  9999,2 53859  53.2163 219.0558 0001812 113.7875 246.3307 15.08841394 85894,6917.876,95.437,540.995,538.488,0.0
53859.0,STARLINK-4790,PAYLOAD,2024-04-02 14:47:58,15.08831315,0.0001745,53.2172,218.4603,104.9958,255.1227,-1.7141e-05,-5.61e-06,0.0,0 STARLINK-4790,1 53859U 22114AT  24093.61664879 -.00000561  00000-0 -17141-4 0  9997,2 53859  53.2172 218.4603 0001745 104.9958 255.1227 15.08831315 86451,6917.907,95.438,540.979,538.565,0.0
53859.0,STARLINK-4790,PAYLOAD,2024-04-02 17:58:44,15.08836425,0.0001414,53.2169,217.8652,99.2827,260.8325,1.9621e-05,2.4e-07,0.0,0 STARLINK-4790,1 53859U 22114AT  24093.74912790  .00000024  00000-0  19621-4 0  9996,2 53859  53.2169 217.8652 0001414  99.2827 260.8325 15.08836425 86479,6917.891,95.438,540.735,538.778,0.0
53859.0,STARLINK-4790,PAYLOAD,2024-04-03 11:27:59,15.08843529,0.000155,53.2153,214.5944,102.4536,257.663,0.00030349,4.546e-05,0.0,0 STARLINK-4790,1 53859U 22114AT  24094.47776859  .00004546  00000-0  30349-3 0  9993,2 53859  53.2153 214.5944 0001550 102.4536 257.6630 15.08843529 86044,6917.87,95.437,540.807,538.662,0.0
53859.0,STARLINK-4790,PAYLOAD,2024-04-03 14:38:45,15.08843539,0.0001272,53.2159,214.0028,88.977,271.1367,0.00029842,4.465e-05,0.0,0 STARLINK-4790,1 53859U 22114AT  24094.61024928  .00004465  00000-0  29842-3 0  9998,2 53859  53.2159 214.0028 0001272  88.9770 271.1367 15.08843539 86608,6917.87,95.437,540.615,538.855,0.0
53859.0,STARLINK-4790,PAYLOAD,2024-04-03 17:49:31,15.08847076,0.0001336,53.2158,213.4078,89.0102,271.1043,0.00033649,5.072e-05,0.0,0 STARLINK-4790,1 53859U 22114AT  24094.74272805  .00005072  00000-0  33649-3 0  9996,2 53859  53.2158 213.4078 0001336  89.0102 271.1043 15.08847076 86620,6917.859,95.437,540.648,538.8,0.0
53859.0,STARLINK-4790,PAYLOAD,2024-04-04 12:54:09,15.08837549,0.0001451,53.2176,209.8385,91.9154,268.2005,0.00010109,1.321e-05,0.0,0 STARLINK-4790,1 53859U 22114AT  24095.53761090  .00001321  00000-0  10109-3 0  9992,2 53859  53.2176 209.8385 0001451  91.9154 268.2005 15.08837549 86200,6917.888,95.438,540.757,538.749,0.0
